[{"OBJECT_NAME":"ONEWEB-0720","OBJECT_ID":"2023-029AR","EPOCH":"2025-12-15T08:14:48.981408","MEAN_MOTION":13.19725159,"ECCENTRICITY":0.00020197,"INCLINATION":87.9193,"RA_OF_ASC_NODE":341.5663,"ARG_OF_PERICENTER":78.7091,"MEAN_ANOMALY":281.4269,"EPHEMERIS_TYPE":0,"CLASSIFICATION_TYPE":"U","NORAD_CAT_ID":55835,"ELEMENT_SET_NO":999,"REV_AT_EPOCH":13459,"BSTAR":0.0001701577,"MEAN_MOTION_DOT":8.1e-7,"MEAN_MOTION_DDOT":0},{"OBJECT_NAME":"ONEWEB-0537","OBJECT_ID":"2023-043A","EPOCH":"2025-12-15T06:46:00.690816","MEAN_MOTION":13.16595257,"ECCENTRICITY":0.00014603,"INCLINATION":87.9045,"RA_OF_ASC_NODE":265.39,"ARG_OF_PERICENTER":74.4276,"MEAN_ANOMALY":285.7016,"EPHEMERIS_TYPE":0,"CLASSIFICATION_TYPE":"U","NORAD_CAT_ID":56046,"ELEMENT_SET_NO":999,"REV_AT_EPOCH":13476,"BSTAR":0.00035981543,"MEAN_MOTION_DOT":1.5e-6,"MEAN_MOTION_DDOT":0},{"OBJECT_NAME":"ONEWEB-0538","OBJECT_ID":"2023-043B","EPOCH":"2025-12-15T06:36:52.831008","MEAN_MOTION":13.16596128,"ECCENTRICITY":0.00016046,"INCLINATION":87.9045,"RA_OF_ASC_NODE":265.3953,"ARG_OF_PERICENTER":64.8283,"MEAN_ANOMALY":295.3014,"EPHEMERIS_TYPE":0,"CLASSIFICATION_TYPE":"U","NORAD_CAT_ID":56047,"ELEMENT_SET_NO":999,"REV_AT_EPOCH":13477,"BSTAR":-1.1726355e-5,"MEAN_MOTION_DOT":8.0e-8,"MEAN_MOTION_DDOT":0},{"OBJECT_NAME":"ONEWEB-0546","OBJECT_ID":"2023-043C","EPOCH":"2025-12-15T06:18:39.021696","MEAN_MOTION":13.16596547,"ECCENTRICITY":0.00010998,"INCLINATION":87.9059,"RA_OF_ASC_NODE":265.3898,"ARG_OF_PERICENTER":87.8946,"MEAN_ANOMALY":272.2311,"EPHEMERIS_TYPE":0,"CLASSIFICATION_TYPE":"U","NORAD_CAT_ID":56048,"ELEMENT_SET_NO":999,"REV_AT_EPOCH":13476,"BSTAR":2.2596483e-5,"MEAN_MOTION_DOT":2.1e-7,"MEAN_MOTION_DDOT":0},{"OBJECT_NAME":"ONEWEB-0547","OBJECT_ID":"2023-043D","EPOCH":"2025-12-15T07:21:33.651072","MEAN_MOTION":13.21825598,"ECCENTRICITY":0.00018434,"INCLINATION":87.9223,"RA_OF_ASC_NODE":280.6489,"ARG_OF_PERICENTER":71.5766,"MEAN_ANOMALY":288.5568,"EPHEMERIS_TYPE":0,"CLASSIFICATION_TYPE":"U","NORAD_CAT_ID":56049,"ELEMENT_SET_NO":999,"REV_AT_EPOCH":13393,"BSTAR":0.00042300768,"MEAN_MOTION_DOT":1.88e-6,"MEAN_MOTION_DDOT":0},{"OBJECT_NAME":"ONEWEB-0548","OBJECT_ID":"2023-043E","EPOCH":"2025-12-15T06:53:59.279424","MEAN_MOTION":13.16593896,"ECCENTRICITY":0.00020638,"INCLINATION":87.9038,"RA_OF_ASC_NODE":265.3913,"ARG_OF_PERICENTER":85.172,"MEAN_ANOMALY":274.9646,"EPHEMERIS_TYPE":0,"CLASSIFICATION_TYPE":"U","NORAD_CAT_ID":56050,"ELEMENT_SET_NO":999,"REV_AT_EPOCH":13476,"BSTAR":0.00031538401,"MEAN_MOTION_DOT":1.33e-6,"MEAN_MOTION_DDOT":0},{"OBJECT_NAME":"ONEWEB-0549","OBJECT_ID":"2023-043F","EPOCH":"2025-12-15T07:10:53.507424","MEAN_MOTION":13.2182587,"ECCENTRICITY":0.00018362,"INCLINATION":87.9219,"RA_OF_ASC_NODE":280.6643,"ARG_OF_PERICENTER":67.8065,"MEAN_ANOMALY":292.3264,"EPHEMERIS_TYPE":0,"CLASSIFICATION_TYPE":"U","NORAD_CAT_ID":56051,"ELEMENT_SET_NO":999,"REV_AT_EPOCH":13393,"BSTAR":0.00024228685,"MEAN_MOTION_DOT":1.13e-6,"MEAN_MOTION_DDOT":0},{"OBJECT_NAME":"ONEWEB-0550","OBJECT_ID":"2023-043G","EPOCH":"2025-12-15T06:51:54.326016","MEAN_MOTION":13.21835886,"ECCENTRICITY":0.00018264,"INCLINATION":87.922,"RA_OF_ASC_NODE":280.6619,"ARG_OF_PERICENTER":80.8662,"MEAN_ANOMALY":279.2678,"EPHEMERIS_TYPE":0,"CLASSIFICATION_TYPE":"U","NORAD_CAT_ID":56052,"ELEMENT_SET_NO":999,"REV_AT_EPOCH":13393,"BSTAR":-0.0019606459,"MEAN_MOTION_DOT":-7.97e-6,"MEAN_MOTION_DDOT":0},{"OBJECT_NAME":"ONEWEB-0551","OBJECT_ID":"2023-043H","EPOCH":"2025-12-15T07:47:31.780896","MEAN_MOTION":13.15549535,"ECCENTRICITY":0.00019121,"INCLINATION":87.8996,"RA_OF_ASC_NODE":295.9216,"ARG_OF_PERICENTER":72.3786,"MEAN_ANOMALY":287.7553,"EPHEMERIS_TYPE":0,"CLASSIFICATION_TYPE":"U","NORAD_CAT_ID":56053,"ELEMENT_SET_NO":999,"REV_AT_EPOCH":13222,"BSTAR":0.00023666988,"MEAN_MOTION_DOT":1.02e-6,"MEAN_MOTION_DDOT":0},{"OBJECT_NAME":"ONEWEB-0552","OBJECT_ID":"2023-043J","EPOCH":"2025-12-15T08:33:49.498560","MEAN_MOTION":13.21826535,"ECCENTRICITY":0.00020342,"INCLINATION":87.9218,"RA_OF_ASC_NODE":280.6567,"ARG_OF_PERICENTER":72.0965,"MEAN_ANOMALY":288.0391,"EPHEMERIS_TYPE":0,"CLASSIFICATION_TYPE":"U","NORAD_CAT_ID":56054,"ELEMENT_SET_NO":999,"REV_AT_EPOCH":13394,"BSTAR":5.8139274e-5,"MEAN_MOTION_DOT":3.7e-7,"MEAN_MOTION_DDOT":0},{"OBJECT_NAME":"ONEWEB-0553","OBJECT_ID":"2023-043K","EPOCH":"2025-12-15T06:27:45.613152","MEAN_MOTION":13.16595862,"ECCENTRICITY":0.00014505,"INCLINATION":87.9047,"RA_OF_ASC_NODE":265.3957,"ARG_OF_PERICENTER":84.0266,"MEAN_ANOMALY":276.103,"EPHEMERIS_TYPE":0,"CLASSIFICATION_TYPE":"U","NORAD_CAT_ID":56055,"ELEMENT_SET_NO":999,"REV_AT_EPOCH":13477,"BSTAR":0.00010003143,"MEAN_MOTION_DOT":5.1e-7,"MEAN_MOTION_DDOT":0},{"OBJECT_NAME":"ONEWEB-0554","OBJECT_ID":"2023-043L","EPOCH":"2025-12-15T07:58:57.065952","MEAN_MOTION":13.1659429,"ECCENTRICITY":0.0001857,"INCLINATION":87.9033,"RA_OF_ASC_NODE":265.3968,"ARG_OF_PERICENTER":81.8898,"MEAN_ANOMALY":278.2443,"EPHEMERIS_TYPE":0,"CLASSIFICATION_TYPE":"U","NORAD_CAT_ID":56056,"ELEMENT_SET_NO":999,"REV_AT_EPOCH":13476,"BSTAR":-0.00085973534,"MEAN_MOTION_DOT":-3.16e-6,"MEAN_MOTION_DDOT":0},{"OBJECT_NAME":"ONEWEB-0555","OBJECT_ID":"2023-043M","EPOCH":"2025-12-15T07:04:15.022848","MEAN_MOTION":13.16595715,"ECCENTRICITY":0.00012626,"INCLINATION":87.9043,"RA_OF_ASC_NODE":265.3854,"ARG_OF_PERICENTER":88.3045,"MEAN_ANOMALY":271.8231,"EPHEMERIS_TYPE":0,"CLASSIFICATION_TYPE":"U","NORAD_CAT_ID":56057,"ELEMENT_SET_NO":999,"REV_AT_EPOCH":13476,"BSTAR":0.00041063536,"MEAN_MOTION_DOT":1.7e-6,"MEAN_MOTION_DDOT":0},{"OBJECT_NAME":"ONEWEB-0557","OBJECT_ID":"2023-043N","EPOCH":"2025-12-15T07:24:44.707392","MEAN_MOTION":13.16597583,"ECCENTRICITY":0.00021434,"INCLINATION":87.9044,"RA_OF_ASC_NODE":265.3954,"ARG_OF_PERICENTER":112.977,"MEAN_ANOMALY":247.1587,"EPHEMERIS_TYPE":0,"CLASSIFICATION_TYPE":"U","NORAD_CAT_ID":56058,"ELEMENT_SET_NO":999,"REV_AT_EPOCH":13476,"BSTAR":0.00025267811,"MEAN_MOTION_DOT":1.09e-6,"MEAN_MOTION_DDOT":0},{"OBJECT_NAME":"ONEWEB-0558","OBJECT_ID":"2023-043P","EPOCH":"2025-12-15T08:24:20.125152","MEAN_MOTION":13.21823201,"ECCENTRICITY":0.00018638,"INCLINATION":87.9221,"RA_OF_ASC_NODE":280.6514,"ARG_OF_PERICENTER":60.9707,"MEAN_ANOMALY":299.1613,"EPHEMERIS_TYPE":0,"CLASSIFICATION_TYPE":"U","NORAD_CAT_ID":56059,"ELEMENT_SET_NO":999,"REV_AT_EPOCH":13395,"BSTAR":-0.00028042216,"MEAN_MOTION_DOT":-1.03e-6,"MEAN_MOTION_DDOT":0},{"OBJECT_NAME":"ONEWEB-0559","OBJECT_ID":"2023-043Q","EPOCH":"2025-12-15T08:07:44.296896","MEAN_MOTION":13.21824602,"ECCENTRICITY":0.00019973,"INCLINATION":87.9219,"RA_OF_ASC_NODE":280.647,"ARG_OF_PERICENTER":70.3525,"MEAN_ANOMALY":289.7824,"EPHEMERIS_TYPE":0,"CLASSIFICATION_TYPE":"U","NORAD_CAT_ID":56060,"ELEMENT_SET_NO":999,"REV_AT_EPOCH":13396,"BSTAR":-3.155691e-5,"MEAN_MOTION_DOT":0,"MEAN_MOTION_DDOT":0},{"OBJECT_NAME":"ONEWEB-0566","OBJECT_ID":"2023-043R","EPOCH":"2025-12-15T07:58:16.458816","MEAN_MOTION":13.21825642,"ECCENTRICITY":0.00019025,"INCLINATION":87.922,"RA_OF_ASC_NODE":280.6465,"ARG_OF_PERICENTER":66.4781,"MEAN_ANOMALY":293.6552,"EPHEMERIS_TYPE":0,"CLASSIFICATION_TYPE":"U","NORAD_CAT_ID":56061,"ELEMENT_SET_NO":999,"REV_AT_EPOCH":13394,"BSTAR":0.00019704952,"MEAN_MOTION_DOT":9.4e-7,"MEAN_MOTION_DDOT":0}]
