ONEWEB-0720             
1 55835U 23029AR  25349.34362247  .00000081  00000+0  17016-3 0  9992
2 55835  87.9193 341.5663 0002019  78.7091 281.4269 13.19725159134594
ONEWEB-0537             
1 56046U 23043A   25349.28195244  .00000150  00000+0  35982-3 0  9996
2 56046  87.9045 265.3900 0001460  74.4276 285.7016 13.16595257134766
ONEWEB-0538             
1 56047U 23043B   25349.27561147  .00000008  00000+0 -11726-4 0  9999
2 56047  87.9045 265.3953 0001604  64.8283 295.3014 13.16596128134770
ONEWEB-0546             
1 56048U 23043C   25349.26295164  .00000021  00000+0  22596-4 0  9993
2 56048  87.9059 265.3898 0001099  87.8946 272.2311 13.16596547134761
ONEWEB-0547             
1 56049U 23043D   25349.30663948  .00000188  00000+0  42301-3 0  9997
2 56049  87.9223 280.6489 0001843  71.5766 288.5568 13.21825598133937
ONEWEB-0548             
1 56050U 23043E   25349.28749166  .00000133  00000+0  31538-3 0  9993
2 56050  87.9038 265.3913 0002063  85.1720 274.9646 13.16593896134766
ONEWEB-0549             
1 56051U 23043F   25349.29923041  .00000113  00000+0  24229-3 0  9998
2 56051  87.9219 280.6643 0001836  67.8065 292.3264 13.21825870133938
ONEWEB-0550             
1 56052U 23043G   25349.28604544 -.00000797  00000+0 -19606-2 0  9994
2 56052  87.9220 280.6619 0001826  80.8662 279.2678 13.21835886133932
ONEWEB-0551             
1 56053U 23043H   25349.32467339  .00000102  00000+0  23667-3 0  9990
2 56053  87.8996 295.9216 0001912  72.3786 287.7553 13.15549535132226
ONEWEB-0552             
1 56054U 23043J   25349.35682290  .00000037  00000+0  58139-4 0  9999
2 56054  87.9218 280.6567 0002034  72.0965 288.0391 13.21826535133946
ONEWEB-0553             
1 56055U 23043K   25349.26927793  .00000051  00000+0  10003-3 0  9993
2 56055  87.9047 265.3957 0001450  84.0266 276.1030 13.16595862134778
ONEWEB-0554             
1 56056U 23043L   25349.33260493 -.00000316  00000+0 -85974-3 0  9994
2 56056  87.9033 265.3968 0001857  81.8898 278.2443 13.16594290134767
ONEWEB-0555             
1 56057U 23043M   25349.29461832  .00000170  00000+0  41064-3 0  9998
2 56057  87.9043 265.3854 0001262  88.3045 271.8231 13.16595715134766
ONEWEB-0557             
1 56058U 23043N   25349.30885078  .00000109  00000+0  25268-3 0  9993
2 56058  87.9044 265.3954 0002143 112.9770 247.1587 13.16597583134762
ONEWEB-0558             
1 56059U 23043P   25349.35023293 -.00000103  00000+0 -28042-3 0  9991
2 56059  87.9221 280.6514 0001863  60.9707 299.1613 13.21823201133954
ONEWEB-0559             
1 56060U 23043Q   25349.33870714  .00000000  00000+0 -31557-4 0  9990
2 56060  87.9219 280.6470 0001997  70.3525 289.7824 13.21824602133961
ONEWEB-0566             
1 56061U 23043R   25349.33213494  .00000094  00000+0  19705-3 0  9999
2 56061  87.9220 280.6465 0001902  66.4781 293.6552 13.21825642133949
